[{"OBJECT_NAME":"GLOBAL-4","OBJECT_ID":"2019-054E","EPOCH":"2026-03-09T08:50:03.339744","MEAN_MOTION":15.55419748,"ECCENTRICITY":0.00055925,"INCLINATION":45.007,"RA_OF_ASC_NODE":88.4746,"ARG_OF_PERICENTER":7.6875,"MEAN_ANOMALY":352.4104,"EPHEMERIS_TYPE":0,"CLASSIFICATION_TYPE":"U","NORAD_CAT_ID":44499,"ELEMENT_SET_NO":999,"REV_AT_EPOCH":36477,"BSTAR":0.00061659402,"MEAN_MOTION_DOT":0.00042886,"MEAN_MOTION_DDOT":0},{"OBJECT_NAME":"STARLINK-2582","OBJECT_ID":"2021-040AJ","EPOCH":"2026-03-10T00:00:02.999808","MEAN_MOTION":15.55262081,"ECCENTRICITY":0.0004224,"INCLINATION":53.0578,"RA_OF_ASC_NODE":128.9245,"ARG_OF_PERICENTER":359.6111,"MEAN_ANOMALY":272.6873,"EPHEMERIS_TYPE":0,"CLASSIFICATION_TYPE":"U","NORAD_CAT_ID":48460,"ELEMENT_SET_NO":999,"REV_AT_EPOCH":576,"BSTAR":0.0026278943,"MEAN_MOTION_DOT":0.00184929,"MEAN_MOTION_DDOT":0}]
